{"fetched_at":"2026-07-11T06:35:26.435Z","source":"https://celestrak.org/NORAD/elements/gp.php?NAME=GHGSAT&FORMAT=JSON","constellation":"ghgsat","records":[{"OBJECT_NAME":"GHGSAT-C1","OBJECT_ID":"2020-061G","EPOCH":"2026-07-10T20:08:29.122944","CLASSIFICATION_TYPE":"U","MEAN_MOTION":15.73195429,"ECCENTRICITY":0.0000722,"INCLINATION":97.2097,"RA_OF_ASC_NODE":277.7697,"ARG_OF_PERICENTER":173.0374,"MEAN_ANOMALY":187.09,"EPHEMERIS_TYPE":0,"NORAD_CAT_ID":46278,"ELEMENT_SET_NO":999,"REV_AT_EPOCH":32719,"BSTAR":0.00021843,"MEAN_MOTION_DOT":0.00029889,"MEAN_MOTION_DDOT":0},{"OBJECT_NAME":"GHGSAT-C2","OBJECT_ID":"2021-006DA","EPOCH":"2026-07-10T12:11:12.552288","CLASSIFICATION_TYPE":"U","MEAN_MOTION":15.38072757,"ECCENTRICITY":0.0006867,"INCLINATION":97.214,"RA_OF_ASC_NODE":238.3735,"ARG_OF_PERICENTER":87.8289,"MEAN_ANOMALY":272.3742,"EPHEMERIS_TYPE":0,"NORAD_CAT_ID":47509,"ELEMENT_SET_NO":999,"REV_AT_EPOCH":30343,"BSTAR":0.00012082,"MEAN_MOTION_DOT":0.00004448,"MEAN_MOTION_DDOT":0},{"OBJECT_NAME":"GHGSAT-C3","OBJECT_ID":"2022-057F","EPOCH":"2026-07-10T20:16:55.208352","CLASSIFICATION_TYPE":"U","MEAN_MOTION":15.34645086,"ECCENTRICITY":0.0006656,"INCLINATION":97.6619,"RA_OF_ASC_NODE":338.3959,"ARG_OF_PERICENTER":48.7629,"MEAN_ANOMALY":311.4186,"EPHEMERIS_TYPE":0,"NORAD_CAT_ID":52737,"ELEMENT_SET_NO":999,"REV_AT_EPOCH":22916,"BSTAR":0.00013427,"MEAN_MOTION_DOT":0.00004424,"MEAN_MOTION_DDOT":0},{"OBJECT_NAME":"GHGSAT-C5","OBJECT_ID":"2022-057N","EPOCH":"2026-07-10T19:39:35.362656","CLASSIFICATION_TYPE":"U","MEAN_MOTION":15.34621482,"ECCENTRICITY":0.0007347,"INCLINATION":97.6706,"RA_OF_ASC_NODE":339.9705,"ARG_OF_PERICENTER":45.7612,"MEAN_ANOMALY":314.4232,"EPHEMERIS_TYPE":0,"NORAD_CAT_ID":52744,"ELEMENT_SET_NO":999,"REV_AT_EPOCH":22916,"BSTAR":0.00012753,"MEAN_MOTION_DOT":0.00004195,"MEAN_MOTION_DDOT":0},{"OBJECT_NAME":"GHGSAT-C4","OBJECT_ID":"2022-057Q","EPOCH":"2026-07-10T19:12:49.006944","CLASSIFICATION_TYPE":"U","MEAN_MOTION":15.34631393,"ECCENTRICITY":0.0006563,"INCLINATION":97.6545,"RA_OF_ASC_NODE":337.1572,"ARG_OF_PERICENTER":33.9733,"MEAN_ANOMALY":326.1928,"EPHEMERIS_TYPE":0,"NORAD_CAT_ID":52746,"ELEMENT_SET_NO":999,"REV_AT_EPOCH":22916,"BSTAR":0.00012666,"MEAN_MOTION_DOT":0.00004167,"MEAN_MOTION_DDOT":0},{"OBJECT_NAME":"GHGSAT-C8","OBJECT_ID":"2023-054J","EPOCH":"2026-07-10T20:49:26.966208","CLASSIFICATION_TYPE":"U","MEAN_MOTION":15.53681916,"ECCENTRICITY":0.0003537,"INCLINATION":97.2966,"RA_OF_ASC_NODE":101.5031,"ARG_OF_PERICENTER":18.669,"MEAN_ANOMALY":341.4693,"EPHEMERIS_TYPE":0,"NORAD_CAT_ID":56186,"ELEMENT_SET_NO":999,"REV_AT_EPOCH":18211,"BSTAR":0.00018256,"MEAN_MOTION_DOT":0.00011572,"MEAN_MOTION_DDOT":0},{"OBJECT_NAME":"GHGSAT-C6","OBJECT_ID":"2023-054AC","EPOCH":"2026-07-10T20:00:42.211296","CLASSIFICATION_TYPE":"U","MEAN_MOTION":15.53658964,"ECCENTRICITY":0.0003874,"INCLINATION":97.3029,"RA_OF_ASC_NODE":102.1681,"ARG_OF_PERICENTER":330.5074,"MEAN_ANOMALY":29.5961,"EPHEMERIS_TYPE":0,"NORAD_CAT_ID":56204,"ELEMENT_SET_NO":999,"REV_AT_EPOCH":18212,"BSTAR":0.00017676,"MEAN_MOTION_DOT":0.00011191,"MEAN_MOTION_DDOT":0},{"OBJECT_NAME":"GHGSAT-C7","OBJECT_ID":"2023-054AH","EPOCH":"2026-07-10T19:45:26.041248","CLASSIFICATION_TYPE":"U","MEAN_MOTION":15.50383776,"ECCENTRICITY":0.0005367,"INCLINATION":97.2979,"RA_OF_ASC_NODE":100.5,"ARG_OF_PERICENTER":324.6869,"MEAN_ANOMALY":35.4027,"EPHEMERIS_TYPE":0,"NORAD_CAT_ID":56209,"ELEMENT_SET_NO":999,"REV_AT_EPOCH":18205,"BSTAR":0.00013835,"MEAN_MOTION_DOT":0.00007766,"MEAN_MOTION_DDOT":0},{"OBJECT_NAME":"GHGSAT-C12","OBJECT_ID":"2025-135B","EPOCH":"2026-07-10T17:52:06.041568","CLASSIFICATION_TYPE":"U","MEAN_MOTION":15.20427855,"ECCENTRICITY":0.0006505,"INCLINATION":97.4765,"RA_OF_ASC_NODE":306.3464,"ARG_OF_PERICENTER":92.9542,"MEAN_ANOMALY":267.2438,"EPHEMERIS_TYPE":0,"NORAD_CAT_ID":64529,"ELEMENT_SET_NO":999,"REV_AT_EPOCH":5840,"BSTAR":0.00010393,"MEAN_MOTION_DOT":0.00002198,"MEAN_MOTION_DDOT":0},{"OBJECT_NAME":"GHGSAT-C13","OBJECT_ID":"2025-135W","EPOCH":"2026-07-10T17:38:26.465856","CLASSIFICATION_TYPE":"U","MEAN_MOTION":15.2137304,"ECCENTRICITY":0.0002108,"INCLINATION":97.4793,"RA_OF_ASC_NODE":306.9441,"ARG_OF_PERICENTER":72.395,"MEAN_ANOMALY":287.7516,"EPHEMERIS_TYPE":0,"NORAD_CAT_ID":64548,"ELEMENT_SET_NO":999,"REV_AT_EPOCH":5843,"BSTAR":0.00018209,"MEAN_MOTION_DOT":0.00004012,"MEAN_MOTION_DDOT":0}]}
