GHGSAT-C1               
1 46278U 20061G   26191.83922596  .00029889  00000+0  21843-3 0  9995
2 46278  97.2097 277.7697 0000722 173.0374 187.0900 15.73195429327197
GHGSAT-C2               
1 47509U 21006DA  26191.50778417  .00004448  00000+0  12082-3 0  9997
2 47509  97.2140 238.3735 0006867  87.8289 272.3742 15.38072757303435
GHGSAT-C3               
1 52737U 22057F   26191.84508343  .00004424  00000+0  13427-3 0  9997
2 52737  97.6619 338.3959 0006656  48.7629 311.4186 15.34645086229169
GHGSAT-C5               
1 52744U 22057N   26191.81915929  .00004195  00000+0  12753-3 0  9990
2 52744  97.6706 339.9705 0007347  45.7612 314.4232 15.34621482229166
GHGSAT-C4               
1 52746U 22057Q   26191.80056721  .00004167  00000+0  12666-3 0  9999
2 52746  97.6545 337.1572 0006563  33.9733 326.1928 15.34631393229167
GHGSAT-C8               
1 56186U 23054J   26191.86767322  .00011572  00000+0  18256-3 0  9990
2 56186  97.2966 101.5031 0003537  18.6690 341.4693 15.53681916182114
GHGSAT-C6               
1 56204U 23054AC  26191.83382189  .00011191  00000+0  17676-3 0  9994
2 56204  97.3029 102.1681 0003874 330.5074  29.5961 15.53658964182120
GHGSAT-C7               
1 56209U 23054AH  26191.82321807  .00007766  00000+0  13835-3 0  9994
2 56209  97.2979 100.5000 0005367 324.6869  35.4027 15.50383776182054
GHGSAT-C12              
1 64529U 25135B   26191.74451437  .00002198  00000+0  10393-3 0  9994
2 64529  97.4765 306.3464 0006505  92.9542 267.2438 15.20427855 58407
GHGSAT-C13              
1 64548U 25135W   26191.73502854  .00004012  00000+0  18209-3 0  9995
2 64548  97.4793 306.9441 0002108  72.3950 287.7516 15.21373040 58434
